$$SOE
2460728.500000000, A.D. 2025-Feb-22 00:00:00.0000, -3.515020688150296E+08, 2.899442931379066E+08, -2.841987454059412E+07,
2460735.500000000, A.D. 2025-Mar-01 00:00:00.0000, -3.574924843292809E+08, 2.822391358468008E+08, -2.778819131832008E+07,
2460742.500000000, A.D. 2025-Mar-08 00:00:00.0000, -3.633001936057366E+08, 2.743897817994440E+08, -2.714230820708145E+07,
2460749.500000000, A.D. 2025-Mar-15 00:00:00.0000, -3.689219349283487E+08, 2.664000217901469E+08, -2.648253381524777E+07,
2460756.500000000, A.D. 2025-Mar-22 00:00:00.0000, -3.743545038374516E+08, 2.582737118258514E+08, -2.580918251991913E+07,
2460763.500000000, A.D. 2025-Mar-29 00:00:00.0000, -3.795947546693291E+08, 2.500147715613186E+08, -2.512257455987693E+07,
2460770.500000000, A.D. 2025-Apr-05 00:00:00.0000, -3.846396004639677E+08, 2.416271836381346E+08, -2.442303621319439E+07,
2460777.500000000, A.D. 2025-Apr-12 00:00:00.0000, -3.894860131713488E+08, 2.331149940306235E+08, -2.371089987499043E+07,
2460784.500000000, A.D. 2025-Apr-19 00:00:00.0000, -3.941310243462154E+08, 2.244823125175671E+08, -2.298650409064756E+07,
2460791.500000000, A.D. 2025-Apr-26 00:00:00.0000, -3.985717260606081E+08, 2.157333130754476E+08, -2.225019358596144E+07,
2460798.500000000, A.D. 2025-May-03 00:00:00.0000, -4.028052719214187E+08, 2.068722342098786E+08, -2.150231930286071E+07,
2460805.500000000, A.D. 2025-May-10 00:00:00.0000, -4.068288781657498E+08, 1.979033792309272E+08, -2.074323844238991E+07,
2460812.500000000, A.D. 2025-May-17 00:00:00.0000, -4.106398247990462E+08, 1.888311164282373E+08, -1.997331452146121E+07,
2460819.500000000, A.D. 2025-May-24 00:00:00.0000, -4.142354566038687E+08, 1.796598790883666E+08, -1.919291746353886E+07,
2460826.500000000, A.D. 2025-May-31 00:00:00.0000, -4.176131836032460E+08, 1.703941656620226E+08, -1.840242373587210E+07,
2460833.500000000, A.D. 2025-Jun-07 00:00:00.0000, -4.207704813814030E+08, 1.610385412822643E+08, -1.760221639774024E+07,
2460840.500000000, A.D. 2025-Jun-14 00:00:00.0000, -4.237048936295505E+08, 1.515976399631599E+08, -1.679268489720894E+07,
2460847.500000000, A.D. 2025-Jun-21 00:00:00.0000, -4.264140357034513E+08, 1.420761642053477E+08, -1.597422499527230E+07,
2460854.500000000, A.D. 2025-Jun-28 00:00:00.0000, -4.288955960647675E+08, 1.324788837705383E+08, -1.514723895944670E+07,
2460861.500000000, A.D. 2025-Jul-05 00:00:00.0000, -4.311473371228821E+08, 1.228106357760237E+08, -1.431213571074026E+07,
2460868.500000000, A.D. 2025-Jul-12 00:00:00.0000, -4.331670966712658E+08, 1.130763252987855E+08, -1.346933088036541E+07,
2460875.500000000, A.D. 2025-Jul-19 00:00:00.0000, -4.349527897319555E+08, 1.032809259105431E+08, -1.261924684036716E+07,
2460882.500000000, A.D. 2025-Jul-26 00:00:00.0000, -4.365024106000261E+08, 9.342948008336654E+07, -1.176231273157149E+07,
2460889.500000000, A.D. 2025-Aug-02 00:00:00.0000, -4.378140350240395E+08, 8.352709948299488E+07, -1.089896449250255E+07,
2460896.500000000, A.D. 2025-Aug-09 00:00:00.0000, -4.388858225004622E+08, 7.357896513037306E+07, -1.002964489200446E+07,
2460903.500000000, A.D. 2025-Aug-16 00:00:00.0000, -4.397160186065123E+08, 6.359032736315878E+07, -9.154803577151949E+06,
2460910.500000000, A.D. 2025-Aug-23 00:00:00.0000, -4.403029570800339E+08, 5.356650560847441E+07, -8.274897161240028E+06,
2460917.500000000, A.D. 2025-Aug-30 00:00:00.0000, -4.406450613182755E+08, 4.351288867534879E+07, -7.390389322904285E+06,
2460924.500000000, A.D. 2025-Sep-06 00:00:00.0000, -4.407408467144399E+08, 3.343493656071676E+07, -6.501750703797109E+06,
2460931.500000000, A.D. 2025-Sep-13 00:00:00.0000, -4.405889255049954E+08, 2.333818127927344E+07, -5.609458653889960E+06,
2460938.500000000, A.D. 2025-Sep-20 00:00:00.0000, -4.401880108571939E+08, 1.322822506719209E+07, -4.713997258329258E+06,
2460945.500000000, A.D. 2025-Sep-27 00:00:00.0000, -4.395369191375338E+08, 3.110739065854724E+06, -3.815857487578556E+06,
2460952.500000000, A.D. 2025-Oct-04 00:00:00.0000, -4.386345723762820E+08, -7.008536983072134E+06, -2.915537240852729E+06,
2460959.500000000, A.D. 2025-Oct-11 00:00:00.0000, -4.374800013027653E+08, -1.712379498283140E+07, -2.013541325084371E+06,
2460966.500000000, A.D. 2025-Oct-18 00:00:00.0000, -4.360723486695749E+08, -2.722915894875595E+07, -1.110381417327167E+06,
2460973.500000000, A.D. 2025-Oct-25 00:00:00.0000, -4.344108727265997E+08, -3.731868569293071E+07, -2.065760217934959E+05,
2460980.500000000, A.D. 2025-Nov-01 00:00:00.0000, -4.324949508042281E+08, -4.738636571726481E+07, 6.973495769154299E+05,
2460987.500000000, A.D. 2025-Nov-08 00:00:00.0000, -4.303240829682378E+08, -5.742612435311311E+07, 1.600863359480612E+06,
2460994.500000000, A.D. 2025-Nov-15 00:00:00.0000, -4.278978955940236E+08, -6.743182321375544E+07, 2.503426598901130E+06,
2461001.500000000, A.D. 2025-Nov-22 00:00:00.0000, -4.252161444523956E+08, -7.739726174910495E+07, 3.404493850650445E+06,
2461008.500000000, A.D. 2025-Nov-29 00:00:00.0000, -4.222787174558029E+08, -8.731617777871564E+07, 4.303513013292532E+06,
2461015.500000000, A.D. 2025-Dec-06 00:00:00.0000, -4.190856393398807E+08, -9.718224715108253E+07, 5.199925657693259E+06,
2461022.500000000, A.D. 2025-Dec-13 00:00:00.0000, -4.156370778468025E+08, -1.069890859111313E+08, 6.093167309990644E+06,
2461029.500000000, A.D. 2025-Dec-20 00:00:00.0000, -4.119333479172153E+08, -1.167302539616605E+08, 6.982667452326126E+06,
2461036.500000000, A.D. 2025-Dec-27 00:00:00.0000, -4.079749149597324E+08, -1.263992576346232E+08, 7.867849552771837E+06,
2461043.500000000, A.D. 2026-Jan-03 00:00:00.0000, -4.037623986491621E+08, -1.359895517966361E+08, 8.748131209089898E+06,
2461050.500000000, A.D. 2026-Jan-10 00:00:00.0000, -3.992965771361380E+08, -1.454945421782571E+08, 9.622924341725007E+06,
2461057.500000000, A.D. 2026-Jan-17 00:00:00.0000, -3.945783914285933E+08, -1.549075880291402E+08, 1.049163540824944E+07,
2461064.500000000, A.D. 2026-Jan-24 00:00:00.0000, -3.896089498591936E+08, -1.642220050863188E+08, 1.135366563514546E+07,
2461071.500000000, A.D. 2026-Jan-31 00:00:00.0000, -3.843895326059288E+08, -1.734310688728396E+08, 1.220841126538300E+07,
2461078.500000000, A.D. 2026-Feb-07 00:00:00.0000, -3.789215961939220E+08, -1.825280183940634E+08, 1.305526381266314E+07,
2461085.500000000, A.D. 2026-Feb-14 00:00:00.0000, -3.732067777140954E+08, -1.915060602569442E+08, 1.389361029904449E+07,
2461092.500000000, A.D. 2026-Feb-21 00:00:00.0000, -3.672468983587441E+08, -2.003583726450663E+08, 1.472283348873207E+07,
2461099.500000000, A.D. 2026-Feb-28 00:00:00.0000, -3.610439673448444E+08, -2.090781080056036E+08, 1.554231231288978E+07,
2461106.500000000, A.D. 2026-Mar-07 00:00:00.0000, -3.546001882684948E+08, -2.176583964086731E+08, 1.635142251588308E+07,
2461113.500000000, A.D. 2026-Mar-14 00:00:00.0000, -3.479179651005300E+08, -2.260923519232990E+08, 1.714953707875162E+07,
2461120.500000000, A.D. 2026-Mar-21 00:00:00.0000, -3.409999060259550E+08, -2.343730791218007E+08, 1.793602649451832E+07,
2461127.500000000, A.D. 2026-Mar-28 00:00:00.0000, -3.338488271189548E+08, -2.424936786914230E+08, 1.871025916499177E+07,
2461134.500000000, A.D. 2026-Apr-04 00:00:00.0000, -3.264677564368719E+08, -2.504472531260830E+08, 1.947160189654486E+07,
2461141.500000000, A.D. 2026-Apr-11 00:00:00.0000, -3.188599382382112E+08, -2.582269128660516E+08, 2.021942044118918E+07,
2461148.500000000, A.D. 2026-Apr-18 00:00:00.0000, -3.110288371444309E+08, -2.658257828996076E+08, 2.095308006869373E+07,
2461155.500000000, A.D. 2026-Apr-25 00:00:00.0000, -3.029781421778216E+08, -2.732370098173522E+08, 2.167194616768914E+07,
2461162.500000000, A.D. 2026-May-02 00:00:00.0000, -2.947117706208404E+08, -2.804537693521034E+08, 2.237538487130900E+07,
2461169.500000000, A.D. 2026-May-09 00:00:00.0000, -2.862338715461002E+08, -2.874692744723779E+08, 2.306276369104370E+07,
2461176.500000000, A.D. 2026-May-16 00:00:00.0000, -2.775488286110611E+08, -2.942767838918548E+08, 2.373345213571483E+07,
2461183.500000000, A.D. 2026-May-23 00:00:00.0000, -2.686612620362123E+08, -3.008696099720510E+08, 2.438682239443557E+07,
2461190.500000000, A.D. 2026-May-30 00:00:00.0000, -2.595760318144588E+08, -3.072411256970362E+08, 2.502225030013083E+07,
2461197.500000000, A.D. 2026-Jun-06 00:00:00.0000, -2.502982424379007E+08, -3.133847739920904E+08, 2.563911633484691E+07,
2461204.500000000, A.D. 2026-Jun-13 00:00:00.0000, -2.408332454467390E+08, -3.192940791855957E+08, 2.623680635673733E+07,
2461211.500000000, A.D. 2026-Jun-20 00:00:00.0000, -2.311866402728625E+08, -3.249626576828537E+08, 2.681471233377932E+07,
2461218.500000000, A.D. 2026-Jun-27 00:00:00.0000, -2.213642750466974E+08, -3.303842281819507E+08, 2.737223321184669E+07,
2461225.500000000, A.D. 2026-Jul-04 00:00:00.0000, -2.113722473362377E+08, -3.355526221933773E+08, 2.790877585295101E+07,
2461232.500000000, A.D. 2026-Jul-11 00:00:00.0000, -2.012169045323675E+08, -3.404617949794290E+08, 2.842375600829338E+07,
2461239.500000000, A.D. 2026-Jul-18 00:00:00.0000, -1.909048437558840E+08, -3.451058368688895E+08, 2.891659931818104E+07,
2461246.500000000, A.D. 2026-Jul-25 00:00:00.0000, -1.804429112299328E+08, -3.494789849213489E+08, 2.938674233495805E+07,
2461253.500000000, A.D. 2026-Aug-01 00:00:00.0000, -1.698382010366287E+08, -3.535756349619790E+08, 2.983363355819143E+07,
2461260.500000000, A.D. 2026-Aug-08 00:00:00.0000, -1.590980530082288E+08, -3.573903539931260E+08, 3.025673445649502E+07,
2461267.500000000, A.D. 2026-Aug-15 00:00:00.0000, -1.482300493035988E+08, -3.609178925028582E+08, 3.065552047168203E+07,
2461274.500000000, A.D. 2026-Aug-22 00:00:00.0000, -1.372420104000157E+08, -3.641531954189377E+08, 3.102948217210318E+07,
2461281.500000000, A.D. 2026-Aug-29 00:00:00.0000, -1.261419927618200E+08, -3.670914130471697E+08, 3.137812665020458E+07,
2461288.500000000, A.D. 2026-Sep-05 00:00:00.0000, -1.149382860272791E+08, -3.697279148249457E+08, 3.170097873132397E+07,
$$EOE